OBJECT_NAME,OBJECT_ID,EPOCH,MEAN_MOTION,ECCENTRICITY,INCLINATION,RA_OF_ASC_NODE,ARG_OF_PERICENTER,MEAN_ANOMALY,EPHEMERIS_TYPE,CLASSIFICATION_TYPE,NORAD_CAT_ID,ELEMENT_SET_NO,REV_AT_EPOCH,BSTAR,MEAN_MOTION_DOT,MEAN_MOTION_DDOT
SL-8 R/B,1985-006B,2026-06-13T06:27:24.772608,14.37833499,.00187613,74.0459,85.2741,333.0236,142.8588,0,U,15483,999,16776,.74723769E-4,.199E-5,0
SL-12 R/B(2),1985-042D,2026-06-13T07:01:00.183936,14.22005208,.00361026,71.1080,245.7450,333.6630,83.1107,0,U,15772,999,12798,.35269937E-4,.31E-6,0
SL-14 R/B,1985-069B,2026-06-12T20:40:03.112032,14.86512496,.00175093,82.5267,295.4346,234.3933,125.5654,0,U,15945,999,18697,.44116331E-4,.415E-5,0
SL-16 R/B,1985-097B,2026-06-12T19:53:26.854656,14.16611240,.0005458,71.0036,300.2539,120.4950,350.3724,0,U,16182,999,10070,-.99812727E-4,-.247E-5,0
SL-14 R/B,1986-006B,2026-06-13T06:47:41.629344,14.86942036,.00752158,82.5261,169.7873,316.6480,42.8834,0,U,16496,999,16341,.57069011E-4,.563E-5,0
COSMOS 1743,1986-034A,2026-06-13T04:29:13.310304,15.66600882,.00037474,82.5268,332.9848,290.1743,69.9114,0,U,16719,999,19516,.45768083E-3,.4805E-3,0
SL-14 R/B,1986-046B,2026-06-13T05:54:58.325760,14.85668595,.0021567,82.4815,349.8995,272.4226,87.4521,0,U,16792,999,14059,.40015287E-4,.372E-5,0
SL-14 R/B,1986-055B,2026-06-13T02:44:31.951680,14.85720589,.00194331,82.5206,36.9623,20.9065,93.9176,0,U,16882,999,13353,.39610775E-4,.369E-5,0
AJISAI (EGS),1986-061A,2026-06-13T06:53:42.989568,12.44516821,.00112379,50.0064,159.3872,170.7081,288.1506,0,U,16908,999,47990,.50080926E-4,-.9E-6,0
SL-14 R/B,1987-024B,2026-06-13T01:02:15.172224,14.86210760,.00169958,82.5281,3.1461,308.0839,51.8844,0,U,17567,999,10229,.3960463E-4,.373E-5,0
COSMOS 1833,1987-027A,2026-06-13T05:09:23.712192,14.13047012,.00226976,70.9171,125.2178,61.7692,298.5717,0,U,17589,999,2381,.19284573E-3,.313E-5,0
SL-16 R/B,1987-027B,2026-06-13T06:19:18.464160,14.17172653,.00063749,71.0034,75.0970,316.8608,43.2016,0,U,17590,999,2888,-.37302691E-4,-.123E-5,0
SL-14 R/B,1987-038B,2026-06-13T05:19:34.758048,14.85443056,.00185338,82.5011,206.8073,204.6043,155.4291,0,U,17912,999,9341,.33667525E-4,.315E-5,0
COSMOS 1844,1987-041A,2026-06-13T05:13:42.811104,14.14568864,.00330845,70.8974,192.6803,241.3028,118.4767,0,U,17973,999,1709,-.60375705E-4,-.165E-5,0
SL-14 R/B,1987-055B,2026-06-13T05:59:16.206432,14.85708584,.0021923,82.4994,258.9408,59.9676,300.3711,0,U,18153,999,8412,.39016514E-4,.364E-5,0
COSMOS 1867,1987-060A,2026-06-13T00:16:27.664320,14.31515375,.0016438,65.0115,39.7534,282.1138,77.8104,0,U,18187,999,3358,.25672194E-4,-.32E-6,0
SL-14 R/B,1988-001B,2026-06-13T06:01:45.599808,14.85607012,.00164941,82.5130,105.4763,283.8320,76.1061,0,U,18749,999,5621,.42035229E-4,.388E-5,0
COSMOS 1933,1988-020A,2026-06-13T00:26:26.585664,15.18688136,.00030226,82.5114,156.5631,201.8822,158.2284,0,U,18958,999,6469,.15346668E-3,.3212E-4,0
SL-3 R/B,1988-032B,2026-06-13T05:30:36.157824,15.20812513,.00236658,97.5248,147.2743,259.8695,99.9870,0,U,19046,999,6662,.1958222E-3,.4278E-4,0
SL-16 R/B,1988-039B,2026-06-13T05:53:25.959840,14.19629509,.0022501,71.0141,226.4931,198.9769,161.0520,0,U,19120,999,97194,-.36419312E-4,-.125E-5,0
COSMOS 1953,1988-050A,2026-06-13T02:16:06.961728,15.29923194,.00118365,82.5085,62.1613,138.8283,221.3852,0,U,19210,999,5236,.26610964E-3,.7756E-4,0
SL-8 R/B,1988-053B,2026-06-12T20:16:04.773216,14.38965888,.00191706,74.0479,297.0623,93.9812,20.2700,0,U,19257,999,99028,.58648609E-4,.155E-5,0
COSMOS 1975,1988-093A,2026-06-13T02:20:31.604928,15.29277171,.00108919,82.5197,21.8164,185.6593,174.4526,0,U,19573,999,3398,.26219476E-3,.749E-4,0
SL-14 R/B,1988-093B,2026-06-13T04:26:54.004992,14.85738966,.00221803,82.5308,312.4020,82.7859,89.9787,0,U,19574,999,1519,.44860346E-4,.416E-5,0
SL-16 R/B,1988-102B,2026-06-13T02:53:18.864672,14.16165472,.00159643,71.0002,310.6965,231.1415,128.8285,0,U,19650,999,94040,-.98376632E-4,-.243E-5,0
INTERCOSMOS 24,1989-080A,2026-06-13T02:59:42.678528,12.59655665,.11884018,82.6069,42.2882,71.3234,301.2956,0,U,20261,999,67881,.24299897E-3,.857E-5,0
SL-14 R/B,1989-080C,2026-06-13T05:49:09.809760,12.50568594,.12289564,82.5928,111.8418,326.4293,26.4422,0,U,20262,999,67209,.95560569E-4,.32E-5,0
DELTA 1 R/B,1989-089B,2026-06-13T06:54:27.212544,14.50729043,.00688934,97.0637,356.4701,179.2543,180.8770,0,U,20323,999,90959,.86976651E-4,.317E-5,0
ARIANE 40 R/B,1990-005H,2026-06-13T03:40:49.030464,14.39925390,.00088057,98.2959,221.8946,278.3266,81.6924,0,U,20443,999,90654,.83437238E-4,.22E-5,0
DELTA 2 R/B(1),1990-008B,2026-06-12T23:45:15.634656,15.68197871,.00658014,35.6000,263.7268,74.4068,286.3923,0,U,20453,999,94104,.61938439E-3,.81784E-3,0
