SL-8 R/B                
1 15483U 85006B   26164.26903672  .00000199  00000+0  74724-4 0  9990
2 15483  74.0459  85.2741 0018761 333.0236 142.8588 14.37833499167766
SL-12 R/B(2)            
1 15772U 85042D   26164.29236324  .00000031  00000+0  35270-4 0  9995
2 15772  71.1080 245.7450 0036102 333.6630  83.1107 14.22005208127985
SL-14 R/B               
1 15945U 85069B   26163.86114713  .00000415  00000+0  44116-4 0  9990
2 15945  82.5267 295.4346 0017509 234.3933 125.5654 14.86512496186973
SL-16 R/B               
1 16182U 85097B   26163.82878304 -.00000247  00000+0 -99813-4 0  9993
2 16182  71.0036 300.2539 0005458 120.4950 350.3724 14.16611240100700
SL-14 R/B               
1 16496U 86006B   26164.28312071  .00000563  00000+0  57069-4 0  9993
2 16496  82.5261 169.7873 0075215 316.6480  42.8834 14.86942036163418
COSMOS 1743             
1 16719U 86034A   26164.18695961  .00048050  00000+0  45768-3 0  9998
2 16719  82.5268 332.9848 0003747 290.1743  69.9114 15.66600882195165
SL-14 R/B               
1 16792U 86046B   26164.24650840  .00000372  00000+0  40015-4 0  9992
2 16792  82.4815 349.8995 0021567 272.4226  87.4521 14.85668595140591
SL-14 R/B               
1 16882U 86055B   26164.11425870  .00000369  00000+0  39611-4 0  9997
2 16882  82.5206  36.9623 0019433  20.9065  93.9176 14.85720589133530
AJISAI (EGS)            
1 16908U 86061A   26164.28730312 -.00000090  00000+0  50081-4 0  9997
2 16908  50.0064 159.3872 0011237 170.7081 288.1506 12.44516821479907
SL-14 R/B               
1 17567U 87024B   26164.04323116  .00000373  00000+0  39605-4 0  9995
2 17567  82.5281   3.1461 0016995 308.0839  51.8844 14.86210760102299
COSMOS 1833             
1 17589U 87027A   26164.21485778  .00000313  00000+0  19285-3 0  9999
2 17589  70.9171 125.2178 0022697  61.7692 298.5717 14.13047012 23816
SL-16 R/B               
1 17590U 87027B   26164.26340815 -.00000123  00000+0 -37303-4 0  9991
2 17590  71.0034  75.0970 0006374 316.8608  43.2016 14.17172653 28888
SL-14 R/B               
1 17912U 87038B   26164.22193007  .00000315  00000+0  33668-4 0  9997
2 17912  82.5011 206.8073 0018533 204.6043 155.4291 14.85443056 93418
COSMOS 1844             
1 17973U 87041A   26164.21785661 -.00000165  00000+0 -60376-4 0  9991
2 17973  70.8974 192.6803 0033084 241.3028 118.4767 14.14568864 17099
SL-14 R/B               
1 18153U 87055B   26164.24949313  .00000364  00000+0  39017-4 0  9993
2 18153  82.4994 258.9408 0021923  59.9676 300.3711 14.85708584 84121
COSMOS 1867             
1 18187U 87060A   26164.01143130 -.00000032  00000+0  25672-4 0  9999
2 18187  65.0115  39.7534 0016438 282.1138  77.8104 14.31515375 33584
SL-14 R/B               
1 18749U 88001B   26164.25122222  .00000388  00000+0  42035-4 0  9999
2 18749  82.5130 105.4763 0016494 283.8320  76.1061 14.85607012 56215
COSMOS 1933             
1 18958U 88020A   26164.01836326  .00003212  00000+0  15347-3 0  9997
2 18958  82.5114 156.5631 0003022 201.8822 158.2284 15.18688136 64693
SL-3 R/B                
1 19046U 88032B   26164.22958516  .00004278  00000+0  19582-3 0  9996
2 19046  97.5248 147.2743 0023665 259.8695  99.9870 15.20812513 66621
SL-16 R/B               
1 19120U 88039B   26164.24543935 -.00000125  00000+0 -36419-4 0  9991
2 19120  71.0141 226.4931 0022501 198.9769 161.0520 14.19629509971946
COSMOS 1953             
1 19210U 88050A   26164.09452502  .00007756  00000+0  26611-3 0  9993
2 19210  82.5085  62.1613 0011836 138.8283 221.3852 15.29923194 52368
SL-8 R/B                
1 19257U 88053B   26163.84449969  .00000155  00000+0  58649-4 0  9995
2 19257  74.0479 297.0623 0019170  93.9812  20.2700 14.38965888990285
COSMOS 1975             
1 19573U 88093A   26164.09758802  .00007490  00000+0  26219-3 0  9993
2 19573  82.5197  21.8164 0010891 185.6593 174.4526 15.29277171 33981
SL-14 R/B               
1 19574U 88093B   26164.18534728  .00000416  00000+0  44860-4 0  9997
2 19574  82.5308 312.4020 0022180  82.7859  89.9787 14.85738966 15199
SL-16 R/B               
1 19650U 88102B   26164.12035723 -.00000243  00000+0 -98377-4 0  9990
2 19650  71.0002 310.6965 0015964 231.1415 128.8285 14.16165472940403
INTERCOSMOS 24          
1 20261U 89080A   26164.12479952  .00000857  00000+0  24300-3 0  9995
2 20261  82.6069  42.2882 1188401  71.3234 301.2956 12.59655665678819
SL-14 R/B               
1 20262U 89080C   26164.24247465  .00000320  00000+0  95561-4 0  9994
2 20262  82.5928 111.8418 1228956 326.4293  26.4422 12.50568594672093
DELTA 1 R/B             
1 20323U 89089B   26164.28781496  .00000317  00000+0  86977-4 0  9999
2 20323  97.0637 356.4701 0068893 179.2543 180.8770 14.50729043909593
ARIANE 40 R/B           
1 20443U 90005H   26164.15334526  .00000220  00000+0  83437-4 0  9997
2 20443  98.2959 221.8946 0008805 278.3266  81.6924 14.39925390906543
DELTA 2 R/B(1)          
1 20453U 90008B   26163.98976429  .00081784  00000+0  61938-3 0  9990
2 20453  35.6000 263.7268 0065801  74.4068 286.3923 15.68197871941047
